CCSDS_OMM_VERS = 2.0
CREATION_DATE  = 
ORIGINATOR     = 

OBJECT_NAME    = HULIANWANG DIGUI-153
OBJECT_ID      = 2026-013H
CENTER_NAME    = EARTH
REF_FRAME      = TEME
TIME_SYSTEM    = UTC
MEAN_ELEMENT_THEORY = SGP/SGP4

EPOCH          = 2026-02-12T06:20:15.190080
MEAN_MOTION    = 13.79514550
ECCENTRICITY   = .0001301
INCLINATION    = 50.0072
RA_OF_ASC_NODE = 89.4374
ARG_OF_PERICENTER = 322.0954
MEAN_ANOMALY   = 37.9849

EPHEMERIS_TYPE = 0
CLASSIFICATION_TYPE = U
NORAD_CAT_ID   = 67529
ELEMENT_SET_NO = 999
REV_AT_EPOCH   = 333
BSTAR          = .16333987E-4
MEAN_MOTION_DOT = -.125E-5
MEAN_MOTION_DDOT = 0

CCSDS_OMM_VERS = 2.0
CREATION_DATE  = 
ORIGINATOR     = 

OBJECT_NAME    = HULIANWANG DIGUI-154
OBJECT_ID      = 2026-013J
CENTER_NAME    = EARTH
REF_FRAME      = TEME
TIME_SYSTEM    = UTC
MEAN_ELEMENT_THEORY = SGP/SGP4

EPOCH          = 2026-02-12T08:00:37.129248
MEAN_MOTION    = 13.79360636
ECCENTRICITY   = .0004223
INCLINATION    = 50.0011
RA_OF_ASC_NODE = 89.1466
ARG_OF_PERICENTER = 185.3162
MEAN_ANOMALY   = 174.7688

EPHEMERIS_TYPE = 0
CLASSIFICATION_TYPE = U
NORAD_CAT_ID   = 67530
ELEMENT_SET_NO = 999
REV_AT_EPOCH   = 334
BSTAR          = .16974E-3
MEAN_MOTION_DOT = .33E-6
MEAN_MOTION_DDOT = 0

CCSDS_OMM_VERS = 2.0
CREATION_DATE  = 
ORIGINATOR     = 

OBJECT_NAME    = CZ-12 R/B
OBJECT_ID      = 2026-013K
CENTER_NAME    = EARTH
REF_FRAME      = TEME
TIME_SYSTEM    = UTC
MEAN_ELEMENT_THEORY = SGP/SGP4

EPOCH          = 2026-02-13T07:25:00.756192
MEAN_MOTION    = 14.14458025
ECCENTRICITY   = .0069052
INCLINATION    = 49.9940
RA_OF_ASC_NODE = 81.6091
ARG_OF_PERICENTER = 213.8608
MEAN_ANOMALY   = 145.7882

EPHEMERIS_TYPE = 0
CLASSIFICATION_TYPE = U
NORAD_CAT_ID   = 67531
ELEMENT_SET_NO = 999
REV_AT_EPOCH   = 353
BSTAR          = .24917E-4
MEAN_MOTION_DOT = -.106E-5
MEAN_MOTION_DDOT = 0

CCSDS_OMM_VERS = 2.0
CREATION_DATE  = 
ORIGINATOR     = 

OBJECT_NAME    = STARLINK-36587
OBJECT_ID      = 2026-014A
CENTER_NAME    = EARTH
REF_FRAME      = TEME
TIME_SYSTEM    = UTC
MEAN_ELEMENT_THEORY = SGP/SGP4

EPOCH          = 2026-02-15T15:31:46.346016
MEAN_MOTION    = 15.80897142
ECCENTRICITY   = .0001964
INCLINATION    = 97.2831
RA_OF_ASC_NODE = 290.4961
ARG_OF_PERICENTER = 94.7076
MEAN_ANOMALY   = 265.4417

EPHEMERIS_TYPE = 0
CLASSIFICATION_TYPE = U
NORAD_CAT_ID   = 67532
ELEMENT_SET_NO = 999
REV_AT_EPOCH   = 510
BSTAR          = .5177E-3
MEAN_MOTION_DOT = .10055E-2
MEAN_MOTION_DDOT = 0

CCSDS_OMM_VERS = 2.0
CREATION_DATE  = 
ORIGINATOR     = 

OBJECT_NAME    = STARLINK-36417
OBJECT_ID      = 2026-014B
CENTER_NAME    = EARTH
REF_FRAME      = TEME
TIME_SYSTEM    = UTC
MEAN_ELEMENT_THEORY = SGP/SGP4

EPOCH          = 2026-02-15T14:51:17.857152
MEAN_MOTION    = 15.75403406
ECCENTRICITY   = .0001434
INCLINATION    = 97.2837
RA_OF_ASC_NODE = 290.3802
ARG_OF_PERICENTER = 129.4647
MEAN_ANOMALY   = 230.6745

EPHEMERIS_TYPE = 0
CLASSIFICATION_TYPE = U
NORAD_CAT_ID   = 67533
ELEMENT_SET_NO = 999
REV_AT_EPOCH   = 509
BSTAR          = .2829E-2
MEAN_MOTION_DOT = .448927E-2
MEAN_MOTION_DDOT = 0

CCSDS_OMM_VERS = 2.0
CREATION_DATE  = 
ORIGINATOR     = 

OBJECT_NAME    = STARLINK-36576
OBJECT_ID      = 2026-014C
CENTER_NAME    = EARTH
REF_FRAME      = TEME
TIME_SYSTEM    = UTC
MEAN_ELEMENT_THEORY = SGP/SGP4

EPOCH          = 2026-02-15T22:00:01.999584
MEAN_MOTION    = 15.75502591
ECCENTRICITY   = .00015085
INCLINATION    = 97.2841
RA_OF_ASC_NODE = 290.7803
ARG_OF_PERICENTER = 102.0575
MEAN_ANOMALY   = 349.0528

EPHEMERIS_TYPE = 0
CLASSIFICATION_TYPE = U
NORAD_CAT_ID   = 67534
ELEMENT_SET_NO = 999
REV_AT_EPOCH   = 518
BSTAR          = -.34341711E-2
MEAN_MOTION_DOT = -.490692E-2
MEAN_MOTION_DDOT = 0

CCSDS_OMM_VERS = 2.0
CREATION_DATE  = 
ORIGINATOR     = 

OBJECT_NAME    = STARLINK-36574
OBJECT_ID      = 2026-014D
CENTER_NAME    = EARTH
REF_FRAME      = TEME
TIME_SYSTEM    = UTC
MEAN_ELEMENT_THEORY = SGP/SGP4

EPOCH          = 2026-02-15T18:30:12.786048
MEAN_MOTION    = 15.81030664
ECCENTRICITY   = .00002031
INCLINATION    = 97.2830
RA_OF_ASC_NODE = 290.6342
ARG_OF_PERICENTER = 203.9367
MEAN_ANOMALY   = 156.1892

EPHEMERIS_TYPE = 0
CLASSIFICATION_TYPE = U
NORAD_CAT_ID   = 67535
ELEMENT_SET_NO = 999
REV_AT_EPOCH   = 512
BSTAR          = .10481404E-2
MEAN_MOTION_DOT = .207504E-2
MEAN_MOTION_DDOT = 0

CCSDS_OMM_VERS = 2.0
CREATION_DATE  = 
ORIGINATOR     = 

OBJECT_NAME    = STARLINK-36572
OBJECT_ID      = 2026-014E
CENTER_NAME    = EARTH
REF_FRAME      = TEME
TIME_SYSTEM    = UTC
MEAN_ELEMENT_THEORY = SGP/SGP4

EPOCH          = 2026-02-15T14:31:28.485120
MEAN_MOTION    = 15.75385036
ECCENTRICITY   = .0001224
INCLINATION    = 97.2843
RA_OF_ASC_NODE = 290.3990
ARG_OF_PERICENTER = 109.6267
MEAN_ANOMALY   = 250.5131

EPHEMERIS_TYPE = 0
CLASSIFICATION_TYPE = U
NORAD_CAT_ID   = 67536
ELEMENT_SET_NO = 999
REV_AT_EPOCH   = 509
BSTAR          = .26251E-2
MEAN_MOTION_DOT = .414532E-2
MEAN_MOTION_DDOT = 0

CCSDS_OMM_VERS = 2.0
CREATION_DATE  = 
ORIGINATOR     = 

OBJECT_NAME    = STARLINK-36561
OBJECT_ID      = 2026-014F
CENTER_NAME    = EARTH
REF_FRAME      = TEME
TIME_SYSTEM    = UTC
MEAN_ELEMENT_THEORY = SGP/SGP4

EPOCH          = 2026-02-15T17:43:04.412064
MEAN_MOTION    = 15.75221096
ECCENTRICITY   = .00016679
INCLINATION    = 97.2847
RA_OF_ASC_NODE = 290.5224
ARG_OF_PERICENTER = 95.5507
MEAN_ANOMALY   = 264.5948

EPHEMERIS_TYPE = 0
CLASSIFICATION_TYPE = U
NORAD_CAT_ID   = 67537
ELEMENT_SET_NO = 999
REV_AT_EPOCH   = 511
BSTAR          = .14628997E-2
MEAN_MOTION_DOT = .224199E-2
MEAN_MOTION_DDOT = 0

CCSDS_OMM_VERS = 2.0
CREATION_DATE  = 
ORIGINATOR     = 

OBJECT_NAME    = STARLINK-36397
OBJECT_ID      = 2026-014G
CENTER_NAME    = EARTH
REF_FRAME      = TEME
TIME_SYSTEM    = UTC
MEAN_ELEMENT_THEORY = SGP/SGP4

EPOCH          = 2026-02-15T14:45:42.384096
MEAN_MOTION    = 15.75374726
ECCENTRICITY   = .0002335
INCLINATION    = 97.2844
RA_OF_ASC_NODE = 290.3843
ARG_OF_PERICENTER = 121.4249
MEAN_ANOMALY   = 238.7244

EPHEMERIS_TYPE = 0
CLASSIFICATION_TYPE = U
NORAD_CAT_ID   = 67538
ELEMENT_SET_NO = 999
REV_AT_EPOCH   = 509
BSTAR          = .22844E-2
MEAN_MOTION_DOT = .358133E-2
MEAN_MOTION_DDOT = 0

CCSDS_OMM_VERS = 2.0
CREATION_DATE  = 
ORIGINATOR     = 

OBJECT_NAME    = STARLINK-36573
OBJECT_ID      = 2026-014H
CENTER_NAME    = EARTH
REF_FRAME      = TEME
TIME_SYSTEM    = UTC
MEAN_ELEMENT_THEORY = SGP/SGP4

EPOCH          = 2026-02-15T13:50:55.703040
MEAN_MOTION    = 15.80907014
ECCENTRICITY   = .000223
INCLINATION    = 97.2830
RA_OF_ASC_NODE = 290.4370
ARG_OF_PERICENTER = 167.0199
MEAN_ANOMALY   = 193.1127

EPHEMERIS_TYPE = 0
CLASSIFICATION_TYPE = U
NORAD_CAT_ID   = 67539
ELEMENT_SET_NO = 999
REV_AT_EPOCH   = 509
BSTAR          = .25211E-2
MEAN_MOTION_DOT = .514482E-2
MEAN_MOTION_DDOT = 0

CCSDS_OMM_VERS = 2.0
CREATION_DATE  = 
ORIGINATOR     = 

OBJECT_NAME    = STARLINK-36585
OBJECT_ID      = 2026-014J
CENTER_NAME    = EARTH
REF_FRAME      = TEME
TIME_SYSTEM    = UTC
MEAN_ELEMENT_THEORY = SGP/SGP4

EPOCH          = 2026-02-15T14:34:01.094304
MEAN_MOTION    = 15.75395385
ECCENTRICITY   = .0002326
INCLINATION    = 97.2851
RA_OF_ASC_NODE = 290.3931
ARG_OF_PERICENTER = 121.7225
MEAN_ANOMALY   = 238.4267

EPHEMERIS_TYPE = 0
CLASSIFICATION_TYPE = U
NORAD_CAT_ID   = 67540
ELEMENT_SET_NO = 999
REV_AT_EPOCH   = 509
BSTAR          = .27031E-2
MEAN_MOTION_DOT = .427685E-2
MEAN_MOTION_DDOT = 0

